[{"OBJECT_NAME":"LUCH 5V (SDCM/PRN 141)","OBJECT_ID":"2014-023A","EPOCH":"2026-03-14T22:39:01.728000","MEAN_MOTION":1.00268718,"ECCENTRICITY":0.0003159,"INCLINATION":4.8997,"RA_OF_ASC_NODE":70.6625,"ARG_OF_PERICENTER":298.2232,"MEAN_ANOMALY":238.0974,"EPHEMERIS_TYPE":0,"CLASSIFICATION_TYPE":"U","NORAD_CAT_ID":39727,"ELEMENT_SET_NO":999,"REV_AT_EPOCH":4341,"BSTAR":0,"MEAN_MOTION_DOT":-2.66e-6,"MEAN_MOTION_DDOT":0},{"OBJECT_NAME":"GPS BIIF-6  (PRN 06)","OBJECT_ID":"2014-026A","EPOCH":"2026-03-14T05:33:03.338496","MEAN_MOTION":2.00568021,"ECCENTRICITY":0.0039739,"INCLINATION":56.5417,"RA_OF_ASC_NODE":335.2169,"ARG_OF_PERICENTER":325.0603,"MEAN_ANOMALY":34.7215,"EPHEMERIS_TYPE":0,"CLASSIFICATION_TYPE":"U","NORAD_CAT_ID":39741,"ELEMENT_SET_NO":999,"REV_AT_EPOCH":8663,"BSTAR":0,"MEAN_MOTION_DOT":-7.4e-7,"MEAN_MOTION_DDOT":0},{"OBJECT_NAME":"COSMOS 2500 (755)","OBJECT_ID":"2014-032A","EPOCH":"2026-03-14T05:59:23.023392","MEAN_MOTION":2.1310624,"ECCENTRICITY":0.00050445,"INCLINATION":65.2871,"RA_OF_ASC_NODE":316.9197,"ARG_OF_PERICENTER":197.8366,"MEAN_ANOMALY":162.208,"EPHEMERIS_TYPE":0,"CLASSIFICATION_TYPE":"U","NORAD_CAT_ID":40001,"ELEMENT_SET_NO":999,"REV_AT_EPOCH":9143,"BSTAR":0,"MEAN_MOTION_DOT":-2.2e-7,"MEAN_MOTION_DDOT":0},{"OBJECT_NAME":"GPS BIIF-7  (PRN 09)","OBJECT_ID":"2014-045A","EPOCH":"2026-03-14T07:40:04.446624","MEAN_MOTION":2.00552225,"ECCENTRICITY":0.00314248,"INCLINATION":55.2885,"RA_OF_ASC_NODE":92.2427,"ARG_OF_PERICENTER":120.3235,"MEAN_ANOMALY":240.0488,"EPHEMERIS_TYPE":0,"CLASSIFICATION_TYPE":"U","NORAD_CAT_ID":40105,"ELEMENT_SET_NO":999,"REV_AT_EPOCH":8417,"BSTAR":0,"MEAN_MOTION_DOT":4.2e-7,"MEAN_MOTION_DDOT":0},{"OBJECT_NAME":"GSAT0201 (GALILEO 5)","OBJECT_ID":"2014-050A","EPOCH":"2026-03-11T07:43:01.878528","MEAN_MOTION":1.8552017,"ECCENTRICITY":0.16588071,"INCLINATION":48.9815,"RA_OF_ASC_NODE":277.4406,"ARG_OF_PERICENTER":175.5932,"MEAN_ANOMALY":186.0859,"EPHEMERIS_TYPE":0,"CLASSIFICATION_TYPE":"U","NORAD_CAT_ID":40128,"ELEMENT_SET_NO":999,"REV_AT_EPOCH":7650,"BSTAR":0,"MEAN_MOTION_DOT":5.0e-8,"MEAN_MOTION_DDOT":0},{"OBJECT_NAME":"GSAT0202 (GALILEO 6)","OBJECT_ID":"2014-050B","EPOCH":"2026-03-11T13:51:31.075200","MEAN_MOTION":1.85520847,"ECCENTRICITY":0.16596546,"INCLINATION":48.9971,"RA_OF_ASC_NODE":276.5149,"ARG_OF_PERICENTER":176.3418,"MEAN_ANOMALY":185.0558,"EPHEMERIS_TYPE":0,"CLASSIFICATION_TYPE":"U","NORAD_CAT_ID":40129,"ELEMENT_SET_NO":999,"REV_AT_EPOCH":7867,"BSTAR":0,"MEAN_MOTION_DOT":9.0e-8,"MEAN_MOTION_DDOT":0},{"OBJECT_NAME":"IRNSS-1C","OBJECT_ID":"2014-061A","EPOCH":"2026-03-14T14:02:17.852640","MEAN_MOTION":1.00268237,"ECCENTRICITY":0.00201336,"INCLINATION":6.2752,"RA_OF_ASC_NODE":90.7645,"ARG_OF_PERICENTER":356.7697,"MEAN_ANOMALY":18.108,"EPHEMERIS_TYPE":0,"CLASSIFICATION_TYPE":"U","NORAD_CAT_ID":40269,"ELEMENT_SET_NO":999,"REV_AT_EPOCH":4174,"BSTAR":0,"MEAN_MOTION_DOT":-1.58e-6,"MEAN_MOTION_DDOT":0},{"OBJECT_NAME":"GPS BIIF-8  (PRN 03)","OBJECT_ID":"2014-068A","EPOCH":"2026-03-14T16:41:23.767872","MEAN_MOTION":2.00570472,"ECCENTRICITY":0.00632729,"INCLINATION":56.9266,"RA_OF_ASC_NODE":34.5953,"ARG_OF_PERICENTER":68.112,"MEAN_ANOMALY":292.5535,"EPHEMERIS_TYPE":0,"CLASSIFICATION_TYPE":"U","NORAD_CAT_ID":40294,"ELEMENT_SET_NO":999,"REV_AT_EPOCH":8331,"BSTAR":0,"MEAN_MOTION_DOT":-4.5e-7,"MEAN_MOTION_DDOT":0},{"OBJECT_NAME":"COSMOS 2501 (702K)","OBJECT_ID":"2014-075A","EPOCH":"2026-03-14T00:59:02.749920","MEAN_MOTION":2.13101375,"ECCENTRICITY":0.00209682,"INCLINATION":63.6166,"RA_OF_ASC_NODE":193.6632,"ARG_OF_PERICENTER":206.5488,"MEAN_ANOMALY":153.3288,"EPHEMERIS_TYPE":0,"CLASSIFICATION_TYPE":"U","NORAD_CAT_ID":40315,"ELEMENT_SET_NO":999,"REV_AT_EPOCH":8782,"BSTAR":0,"MEAN_MOTION_DOT":0,"MEAN_MOTION_DDOT":0},{"OBJECT_NAME":"GPS BIIF-9  (PRN 26)","OBJECT_ID":"2015-013A","EPOCH":"2026-03-14T07:53:14.402688","MEAN_MOTION":2.00556996,"ECCENTRICITY":0.01087708,"INCLINATION":53.184,"RA_OF_ASC_NODE":208.0995,"ARG_OF_PERICENTER":39.8522,"MEAN_ANOMALY":320.9054,"EPHEMERIS_TYPE":0,"CLASSIFICATION_TYPE":"U","NORAD_CAT_ID":40534,"ELEMENT_SET_NO":999,"REV_AT_EPOCH":7992,"BSTAR":0,"MEAN_MOTION_DOT":4.0e-8,"MEAN_MOTION_DDOT":0},{"OBJECT_NAME":"GSAT0203 (GALILEO 7)","OBJECT_ID":"2015-017A","EPOCH":"2026-03-13T14:23:31.127712","MEAN_MOTION":1.70475763,"ECCENTRICITY":0.00046632,"INCLINATION":56.8181,"RA_OF_ASC_NODE":344.2043,"ARG_OF_PERICENTER":298.714,"MEAN_ANOMALY":61.2673,"EPHEMERIS_TYPE":0,"CLASSIFICATION_TYPE":"U","NORAD_CAT_ID":40544,"ELEMENT_SET_NO":999,"REV_AT_EPOCH":6757,"BSTAR":0,"MEAN_MOTION_DOT":-8.4e-7,"MEAN_MOTION_DDOT":0},{"OBJECT_NAME":"GSAT0204 (GALILEO 8)","OBJECT_ID":"2015-017B","EPOCH":"2026-03-14T10:36:15.466752","MEAN_MOTION":1.704754,"ECCENTRICITY":0.0004611,"INCLINATION":56.8237,"RA_OF_ASC_NODE":344.1993,"ARG_OF_PERICENTER":291.5238,"MEAN_ANOMALY":68.4567,"EPHEMERIS_TYPE":0,"CLASSIFICATION_TYPE":"U","NORAD_CAT_ID":40545,"ELEMENT_SET_NO":999,"REV_AT_EPOCH":3063,"BSTAR":0,"MEAN_MOTION_DOT":-8.1e-7,"MEAN_MOTION_DDOT":0},{"OBJECT_NAME":"BEIDOU-3S IGSO-1S (C31)","OBJECT_ID":"2015-019A","EPOCH":"2026-03-14T14:05:47.517792","MEAN_MOTION":1.00271852,"ECCENTRICITY":0.00357397,"INCLINATION":49.372,"RA_OF_ASC_NODE":296.6012,"ARG_OF_PERICENTER":190.1845,"MEAN_ANOMALY":353.2607,"EPHEMERIS_TYPE":0,"CLASSIFICATION_TYPE":"U","NORAD_CAT_ID":40549,"ELEMENT_SET_NO":999,"REV_AT_EPOCH":4012,"BSTAR":0,"MEAN_MOTION_DOT":-1.37e-6,"MEAN_MOTION_DDOT":0},{"OBJECT_NAME":"GPS BIIF-10 (PRN 08)","OBJECT_ID":"2015-033A","EPOCH":"2026-03-13T23:46:12.182592","MEAN_MOTION":2.00561166,"ECCENTRICITY":0.0114687,"INCLINATION":54.0576,"RA_OF_ASC_NODE":271.0094,"ARG_OF_PERICENTER":29.1823,"MEAN_ANOMALY":331.4807,"EPHEMERIS_TYPE":0,"CLASSIFICATION_TYPE":"U","NORAD_CAT_ID":40730,"ELEMENT_SET_NO":999,"REV_AT_EPOCH":7808,"BSTAR":0,"MEAN_MOTION_DOT":3.5e-7,"MEAN_MOTION_DDOT":0},{"OBJECT_NAME":"BEIDOU-3S M2S (C58)","OBJECT_ID":"2015-037A","EPOCH":"2026-03-14T06:47:55.905216","MEAN_MOTION":1.86232289,"ECCENTRICITY":0.00085462,"INCLINATION":54.9541,"RA_OF_ASC_NODE":305.3148,"ARG_OF_PERICENTER":278.5992,"MEAN_ANOMALY":81.3621,"EPHEMERIS_TYPE":0,"CLASSIFICATION_TYPE":"U","NORAD_CAT_ID":40748,"ELEMENT_SET_NO":999,"REV_AT_EPOCH":7235,"BSTAR":0,"MEAN_MOTION_DOT":-2.0e-7,"MEAN_MOTION_DDOT":0},{"OBJECT_NAME":"BEIDOU-3S M1S (C57)","OBJECT_ID":"2015-037B","EPOCH":"2026-03-12T21:23:59.240832","MEAN_MOTION":1.86254744,"ECCENTRICITY":0.0004583,"INCLINATION":54.952,"RA_OF_ASC_NODE":305.3509,"ARG_OF_PERICENTER":33.133,"MEAN_ANOMALY":326.9501,"EPHEMERIS_TYPE":0,"CLASSIFICATION_TYPE":"U","NORAD_CAT_ID":40749,"ELEMENT_SET_NO":999,"REV_AT_EPOCH":7233,"BSTAR":0,"MEAN_MOTION_DOT":-2.9e-7,"MEAN_MOTION_DDOT":0},{"OBJECT_NAME":"GSAT0206 (GALILEO 10)","OBJECT_ID":"2015-045B","EPOCH":"2026-03-12T02:01:25.666176","MEAN_MOTION":1.70473824,"ECCENTRICITY":0.0003542,"INCLINATION":54.9793,"RA_OF_ASC_NODE":224.2827,"ARG_OF_PERICENTER":50.5001,"MEAN_ANOMALY":309.4904,"EPHEMERIS_TYPE":0,"CLASSIFICATION_TYPE":"U","NORAD_CAT_ID":40890,"ELEMENT_SET_NO":999,"REV_AT_EPOCH":6538,"BSTAR":0,"MEAN_MOTION_DOT":3.7e-7,"MEAN_MOTION_DDOT":0}]
